QIANFAN-25              
1 61558U 24185G   26005.28084218  .00000573  00000+0  34174-3 0  9997
2 61558  88.9784  75.5287 0008274 228.1069 131.9409 14.05931234 72811
QIANFAN-26              
1 61559U 24185H   26005.27834730  .00000157  00000+0  14439-3 0  9999
2 61559  88.9796  77.2143 0003769 309.5710  50.5123 13.77825366 71911
QIANFAN-27              
1 61560U 24185J   26005.23364902  .00000837  00000+0  33582-3 0  9991
2 61560  88.9787  74.1925 0007134 195.3453 164.7526 14.27368335 73519
QIANFAN-28              
1 61561U 24185K   26005.27419870  .00001237  00000+0  49207-3 0  9997
2 61561  88.9805  74.1927 0006665 193.4989 166.6028 14.28091603 73536
QIANFAN-29              
1 61562U 24185L   26005.29086219  .00000228  00000+0  33439-3 0  9996
2 61562  88.9773  78.8810 0009149 353.3936   6.7093 13.51021266 70976
QIANFAN-30              
1 61563U 24185M   26005.28356331  .00000239  00000+0  35782-3 0  9996
2 61563  88.9794  78.4163 0006395 340.5632  19.5274 13.49997050 71242
QIANFAN-31              
1 61564U 24185N   26005.26111846  .00000271  00000+0  35883-3 0  9993
2 61564  88.9776  78.1831 0005510 334.5671  25.5212 13.57976956 71358
QIANFAN-32              
1 61565U 24185P   26005.31307608  .00000246  00000+0  36433-3 0  9997
2 61565  88.9836  78.5544 0009066   7.5374 352.5912 13.50744881 71227
